BEIDOU-2 IGSO-5         
1 37948U 11073A   26183.72937883 -.00000128  00000+0  00000+0 0  9990
2 37948  47.6496 271.3544 0114527 222.0502 141.5350  1.00270596 53296
LUCH-5A                 
1 37951U 11074B   26188.62754560 -.00000040  00000+0  00000+0 0  9991
2 37951   8.8024  73.5077 0002596  53.4217 191.5356  1.00272610 53256
BEIDOU-2 G5             
1 38091U 12008A   26188.58442484  .00000070  00000+0  00000+0 0  9991
2 38091   3.6213  69.5726 0007428 273.1484 211.9491  1.00268732 52578
BEIDOU-2 M3             
1 38250U 12018A   26188.59310414 -.00000065  00000+0  00000+0 0  9992
2 38250  55.7391 304.1881 0020667 272.8507  86.9321  1.86230177 96321
BEIDOU-2 M4             
1 38251U 12018B   26186.91456642 -.00000061  00000+0  00000+0 0  9997
2 38251  55.6406 303.4567 0011823 273.7127  86.1743  1.86229838 96291
SES-5                   
1 38652U 12036A   26188.21733142  .00000049  00000+0  00000+0 0  9995
2 38652   0.0479 314.4326 0002027 154.8710 259.1101  1.00272696 44657
BEIDOU-2 M6             
1 38775U 12050B   26188.23508586 -.00000043  00000+0  00000+0 0  9996
2 38775  56.5614  62.2316 0013130   0.5124 359.5520  1.86230940 93687
GSAT-10                 
1 38779U 12051B   26188.58922642 -.00000149  00000+0  00000+0 0  9999
2 38779   0.0400 241.9553 0007820 213.1322 125.5712  1.00269278 50306
NAVSTAR 67 (USA 239)    
1 38833U 12053A   26188.25885096  .00000066  00000+0  00000+0 0  9994
2 38833  53.5887 142.7772 0181499  66.0832 295.7851  2.00567789 99841
GSAT0103 (GALILEO-FM3)  
1 38857U 12055A   26186.07331266  .00000001  00000+0  00000+0 0  9994
2 38857  55.8163 101.0549 0004125 308.6335  51.3483  1.70473389 85314
BEIDOU-2 G6             
1 38953U 12059A   26188.58939976 -.00000162  00000+0  00000+0 0  9994
2 38953   4.4698  73.3075 0009084 330.2599 178.1470  1.00268990 50118
LUCH-5B                 
1 38977U 12061A   26188.42689670 -.00000129  00000+0  00000+0 0  9992
2 38977  10.5244  49.6770 0003487 139.6998 233.4586  1.00271756 49814
COSMOS 2485 [GLONASS-M] 
1 39155U 13019A   26188.08816391 -.00000019  00000+0  00000+0 0  9997
2 39155  65.4303  72.9368 0022942 232.1450 127.7096  2.13103480102701
NAVSTAR 68 (USA 242)    
1 39166U 13023A   26188.12634727 -.00000010  00000+0  00000+0 0  9991
2 39166  54.4888 268.1608 0141400  51.1024 310.2139  2.00563366 96283
IRNSS-1A                
1 39199U 13034A   26186.73027412  .00000068  00000+0  00000+0 0  9993
2 39199  35.7606  63.6043 0017858 181.6646 356.4955  1.00280420 47558
NAVSTAR 69 (USA 248)    
1 39533U 14008A   26188.12815914  .00000076  00000+0  00000+0 0  9993
2 39533  53.6571 148.5066 0084185 231.4975 127.7260  2.00561052 90082
ASTRA 5B                
1 39617U 14011B   26188.57740480  .00000152  00000+0  00000+0 0  9999
2 39617   0.0680 308.6684 0001906 160.5668  47.6682  1.00270811 44871
COSMOS 2492 [GLONASS-M] 
1 39620U 14012A   26188.51628426 -.00000049  00000+0  00000+0 0  9999
2 39620  65.2849 313.2456 0010306 320.1231  39.8129  2.13103517 95674
IRNSS-1B                
1 39635U 14017A   26186.73010079  .00000137  00000+0  00000+0 0  9998
2 39635  28.8929 240.0829 0022969 195.5386 165.9835  1.00272765 44988
LUCH-5V                 
1 39727U 14023A   26188.59156642 -.00000256  00000+0  00000+0 0  9993
2 39727   5.1801  69.5408 0002698  65.4113  98.2544  1.00267767 44569
NAVSTAR 70 (USA 251)    
1 39741U 14026A   26188.40400502 -.00000069  00000+0  00000+0 0  9991
2 39741  56.4876 330.7309 0038112 326.0053  33.7555  2.00559488 88949
COSMOS 2500 [GLONASS-M] 
1 40001U 14032A   26188.21653122 -.00000048  00000+0  00000+0 0  9993
2 40001  65.2207 313.0011 0007970 188.6383 171.3606  2.13106140 93888
NAVSTAR 71 (USA 256)    
1 40105U 14045A   26187.00001942 -.00000013  00000+0  00000+0 0  9997
2 40105  55.3649  87.7155 0034103 118.3151 242.0701  2.00559674 86455
GSAT0201 (GALILEO 5)    
1 40128U 14050A   26186.20344625 -.00000032  00000+0  00000+0 0  9998
2 40128  48.8557 272.6971 1677026 180.0981 179.9258  1.85520009 78651
GSAT0202 (GALILEO 6)    
1 40129U 14050B   26188.07586744 -.00000030  00000+0  00000+0 0  9994
2 40129  48.8704 271.7059 1678640 180.8920 178.8253  1.85520527 80850
IRNSS-1C                
1 40269U 14061A   26188.30408921 -.00000150  00000+0  00000+0 0  9990
2 40269   6.5677  88.5481 0022126   4.6264  24.5735  1.00273588 42896
NAVSTAR 72 (USA 258)    
1 40294U 14068A   26187.86550650 -.00000053  00000+0  00000+0 0  9994
2 40294  57.0010  30.1972 0067431  71.2772 289.5066  2.00577397 85608
COSMOS 2501 [GLONASS-K] 
1 40315U 14075A   26187.54030231  .00000114  00000+0  00000+0 0  9996
2 40315  63.6180 189.7021 0022679 212.6524 147.2323  2.13101455 90266
NAVSTAR 73 (USA 260)    
1 40534U 15013A   26188.50529200  .00000105  00000+0  00000+0 0  9998
2 40534  53.1668 203.3372 0110086  40.3058 320.5487  2.00550128 82230
GSAT0203 (GALILEO 7)    
1 40544U 15017A   26188.15662699 -.00000072  00000+0  00000+0 0  9998
2 40544  56.7798 341.0522 0002413 261.2011  98.7722  1.70476196 69541
GSAT0204 (GALILEO 8)    
1 40545U 15017B   26188.41247189 -.00000072  00000+0  00000+0 0  9991
2 40545  56.7861 341.0638 0002551 235.3414 124.6352  1.70475727 32584
